{
  "norad_id": 66648,
  "name": "COSMOS 2598 (RODNIK-S 23)",
  "history": [
    {
      "epoch": "2026-03-28T21:00:24.819264Z",
      "apogee_km": 1502.3637696884925,
      "perigee_km": 1486.1644150646653,
      "latitude_deg": 4.9592544503468724e-05,
      "longitude_deg": 79.05733448582215,
      "height_km": 1488.9290043138606,
      "semi_major_axis_km": 7872.401092376578,
      "eccentricity": 0.00102887,
      "inclination_deg": 82.5042,
      "raan_deg": 220.4502,
      "arg_perigee_deg": 7.4408,
      "mean_anomaly_deg": 352.6823,
      "mean_motion_rev_day": 12.42916469
    },
    {
      "epoch": "2026-03-29T02:48:09.144000Z",
      "apogee_km": 1502.3584402302695,
      "perigee_km": 1486.1696347367879,
      "latitude_deg": -5.8938029580241784e-05,
      "longitude_deg": -8.26548482748425,
      "height_km": 1488.9249955141722,
      "semi_major_axis_km": 7872.401037483529,
      "eccentricity": 0.0010282,
      "inclination_deg": 82.5042,
      "raan_deg": 220.3001,
      "arg_perigee_deg": 6.9104,
      "mean_anomaly_deg": 353.2115,
      "mean_motion_rev_day": 12.42916482
    }
  ]
}